[{"OBJECT_NAME":"ONEWEB-0107","OBJECT_ID":"2021-025G","EPOCH":"2026-03-03T07:03:16.022880","MEAN_MOTION":13.13468976,"ECCENTRICITY":0.00020368,"INCLINATION":87.9049,"RA_OF_ASC_NODE":341.2638,"ARG_OF_PERICENTER":77.7732,"MEAN_ANOMALY":282.3625,"EPHEMERIS_TYPE":0,"CLASSIFICATION_TYPE":"U","NORAD_CAT_ID":48048,"ELEMENT_SET_NO":999,"REV_AT_EPOCH":23962,"BSTAR":0.00083320741,"MEAN_MOTION_DOT":3.17e-6,"MEAN_MOTION_DDOT":0},{"OBJECT_NAME":"ONEWEB-0101","OBJECT_ID":"2021-025H","EPOCH":"2026-03-03T06:09:38.326176","MEAN_MOTION":13.13469131,"ECCENTRICITY":0.00018679,"INCLINATION":87.9042,"RA_OF_ASC_NODE":341.2976,"ARG_OF_PERICENTER":81.8617,"MEAN_ANOMALY":278.2724,"EPHEMERIS_TYPE":0,"CLASSIFICATION_TYPE":"U","NORAD_CAT_ID":48049,"ELEMENT_SET_NO":999,"REV_AT_EPOCH":23959,"BSTAR":-0.0007918527,"MEAN_MOTION_DOT":-2.76e-6,"MEAN_MOTION_DDOT":0},{"OBJECT_NAME":"ONEWEB-0113","OBJECT_ID":"2021-025J","EPOCH":"2026-03-03T05:48:05.228352","MEAN_MOTION":13.13973733,"ECCENTRICITY":0.00014943,"INCLINATION":87.9051,"RA_OF_ASC_NODE":341.2207,"ARG_OF_PERICENTER":81.6133,"MEAN_ANOMALY":278.5166,"EPHEMERIS_TYPE":0,"CLASSIFICATION_TYPE":"U","NORAD_CAT_ID":48050,"ELEMENT_SET_NO":999,"REV_AT_EPOCH":23969,"BSTAR":8.438127e-5,"MEAN_MOTION_DOT":4.4e-7,"MEAN_MOTION_DDOT":0},{"OBJECT_NAME":"ONEWEB-0112","OBJECT_ID":"2021-025K","EPOCH":"2026-03-03T07:10:35.230368","MEAN_MOTION":13.13469916,"ECCENTRICITY":0.00019446,"INCLINATION":87.9051,"RA_OF_ASC_NODE":341.2601,"ARG_OF_PERICENTER":85.0451,"MEAN_ANOMALY":275.09,"EPHEMERIS_TYPE":0,"CLASSIFICATION_TYPE":"U","NORAD_CAT_ID":48051,"ELEMENT_SET_NO":999,"REV_AT_EPOCH":23969,"BSTAR":0.0010115393,"MEAN_MOTION_DOT":3.82e-6,"MEAN_MOTION_DDOT":0},{"OBJECT_NAME":"ONEWEB-0156","OBJECT_ID":"2021-025L","EPOCH":"2026-03-03T07:22:46.246944","MEAN_MOTION":13.13468579,"ECCENTRICITY":0.0001866,"INCLINATION":87.905,"RA_OF_ASC_NODE":341.2697,"ARG_OF_PERICENTER":74.9798,"MEAN_ANOMALY":285.1537,"EPHEMERIS_TYPE":0,"CLASSIFICATION_TYPE":"U","NORAD_CAT_ID":48052,"ELEMENT_SET_NO":999,"REV_AT_EPOCH":23967,"BSTAR":0.00069270713,"MEAN_MOTION_DOT":2.66e-6,"MEAN_MOTION_DDOT":0},{"OBJECT_NAME":"ONEWEB-0161","OBJECT_ID":"2021-025M","EPOCH":"2026-03-03T06:46:12.490464","MEAN_MOTION":13.13469857,"ECCENTRICITY":0.00019357,"INCLINATION":87.9038,"RA_OF_ASC_NODE":341.2844,"ARG_OF_PERICENTER":76.3785,"MEAN_ANOMALY":283.7559,"EPHEMERIS_TYPE":0,"CLASSIFICATION_TYPE":"U","NORAD_CAT_ID":48053,"ELEMENT_SET_NO":999,"REV_AT_EPOCH":23960,"BSTAR":0.00036015723,"MEAN_MOTION_DOT":1.44e-6,"MEAN_MOTION_DDOT":0},{"OBJECT_NAME":"ONEWEB-0158","OBJECT_ID":"2021-025N","EPOCH":"2026-03-03T07:37:23.956032","MEAN_MOTION":13.13468752,"ECCENTRICITY":0.00015183,"INCLINATION":87.9051,"RA_OF_ASC_NODE":341.2676,"ARG_OF_PERICENTER":86.8311,"MEAN_ANOMALY":273.2991,"EPHEMERIS_TYPE":0,"CLASSIFICATION_TYPE":"U","NORAD_CAT_ID":48054,"ELEMENT_SET_NO":999,"REV_AT_EPOCH":23973,"BSTAR":-8.2428629e-5,"MEAN_MOTION_DOT":-1.7e-7,"MEAN_MOTION_DDOT":0},{"OBJECT_NAME":"ONEWEB-0157","OBJECT_ID":"2021-025P","EPOCH":"2026-03-03T06:24:15.696576","MEAN_MOTION":13.13469625,"ECCENTRICITY":0.00021865,"INCLINATION":87.9046,"RA_OF_ASC_NODE":341.2822,"ARG_OF_PERICENTER":78.4549,"MEAN_ANOMALY":281.6825,"EPHEMERIS_TYPE":0,"CLASSIFICATION_TYPE":"U","NORAD_CAT_ID":48055,"ELEMENT_SET_NO":999,"REV_AT_EPOCH":23966,"BSTAR":-0.00051653871,"MEAN_MOTION_DOT":-1.76e-6,"MEAN_MOTION_DDOT":0},{"OBJECT_NAME":"ONEWEB-0162","OBJECT_ID":"2021-025Q","EPOCH":"2026-03-03T05:49:56.271360","MEAN_MOTION":13.13470754,"ECCENTRICITY":0.00017778,"INCLINATION":87.905,"RA_OF_ASC_NODE":341.2914,"ARG_OF_PERICENTER":73.3368,"MEAN_ANOMALY":286.7956,"EPHEMERIS_TYPE":0,"CLASSIFICATION_TYPE":"U","NORAD_CAT_ID":48056,"ELEMENT_SET_NO":999,"REV_AT_EPOCH":23963,"BSTAR":-4.0885102e-5,"MEAN_MOTION_DOT":-2.0e-8,"MEAN_MOTION_DDOT":0},{"OBJECT_NAME":"ONEWEB-0155","OBJECT_ID":"2021-025R","EPOCH":"2026-03-03T07:49:34.871520","MEAN_MOTION":13.13468395,"ECCENTRICITY":0.00018982,"INCLINATION":87.9041,"RA_OF_ASC_NODE":341.2744,"ARG_OF_PERICENTER":81.7938,"MEAN_ANOMALY":278.3406,"EPHEMERIS_TYPE":0,"CLASSIFICATION_TYPE":"U","NORAD_CAT_ID":48057,"ELEMENT_SET_NO":999,"REV_AT_EPOCH":23978,"BSTAR":-0.00051230061,"MEAN_MOTION_DOT":-1.74e-6,"MEAN_MOTION_DDOT":0},{"OBJECT_NAME":"ONEWEB-0149","OBJECT_ID":"2021-025S","EPOCH":"2026-03-03T06:31:34.435776","MEAN_MOTION":13.13469673,"ECCENTRICITY":0.00017883,"INCLINATION":87.9049,"RA_OF_ASC_NODE":341.2816,"ARG_OF_PERICENTER":71.4944,"MEAN_ANOMALY":288.6379,"EPHEMERIS_TYPE":0,"CLASSIFICATION_TYPE":"U","NORAD_CAT_ID":48058,"ELEMENT_SET_NO":999,"REV_AT_EPOCH":23958,"BSTAR":-0.00038183384,"MEAN_MOTION_DOT":-1.27e-6,"MEAN_MOTION_DDOT":0},{"OBJECT_NAME":"ONEWEB-0148","OBJECT_ID":"2021-025T","EPOCH":"2026-03-03T07:27:39.059136","MEAN_MOTION":13.13470007,"ECCENTRICITY":0.00019835,"INCLINATION":87.9044,"RA_OF_ASC_NODE":341.2886,"ARG_OF_PERICENTER":62.8163,"MEAN_ANOMALY":297.3168,"EPHEMERIS_TYPE":0,"CLASSIFICATION_TYPE":"U","NORAD_CAT_ID":48059,"ELEMENT_SET_NO":999,"REV_AT_EPOCH":23971,"BSTAR":0.00046993292,"MEAN_MOTION_DOT":1.84e-6,"MEAN_MOTION_DDOT":0},{"OBJECT_NAME":"ONEWEB-0160","OBJECT_ID":"2021-025U","EPOCH":"2026-03-03T07:52:00.838272","MEAN_MOTION":13.13469008,"ECCENTRICITY":0.00010303,"INCLINATION":87.904,"RA_OF_ASC_NODE":341.2821,"ARG_OF_PERICENTER":88.3602,"MEAN_ANOMALY":271.7645,"EPHEMERIS_TYPE":0,"CLASSIFICATION_TYPE":"U","NORAD_CAT_ID":48060,"ELEMENT_SET_NO":999,"REV_AT_EPOCH":23966,"BSTAR":-0.00056767673,"MEAN_MOTION_DOT":-1.95e-6,"MEAN_MOTION_DDOT":0},{"OBJECT_NAME":"ONEWEB-0163","OBJECT_ID":"2021-025V","EPOCH":"2026-03-03T07:30:05.319648","MEAN_MOTION":13.13468521,"ECCENTRICITY":0.00020622,"INCLINATION":87.9045,"RA_OF_ASC_NODE":341.277,"ARG_OF_PERICENTER":79.0666,"MEAN_ANOMALY":281.0696,"EPHEMERIS_TYPE":0,"CLASSIFICATION_TYPE":"U","NORAD_CAT_ID":48061,"ELEMENT_SET_NO":999,"REV_AT_EPOCH":23978,"BSTAR":0.00027547649,"MEAN_MOTION_DOT":1.13e-6,"MEAN_MOTION_DDOT":0},{"OBJECT_NAME":"ONEWEB-0159","OBJECT_ID":"2021-025W","EPOCH":"2026-03-03T07:17:53.407104","MEAN_MOTION":13.13468197,"ECCENTRICITY":0.00019832,"INCLINATION":87.905,"RA_OF_ASC_NODE":341.265,"ARG_OF_PERICENTER":75.386,"MEAN_ANOMALY":284.7489,"EPHEMERIS_TYPE":0,"CLASSIFICATION_TYPE":"U","NORAD_CAT_ID":48062,"ELEMENT_SET_NO":999,"REV_AT_EPOCH":23970,"BSTAR":0.0008854951,"MEAN_MOTION_DOT":3.36e-6,"MEAN_MOTION_DDOT":0},{"OBJECT_NAME":"ONEWEB-0164","OBJECT_ID":"2021-025X","EPOCH":"2026-03-03T05:01:22.943712","MEAN_MOTION":13.13469618,"ECCENTRICITY":0.00016805,"INCLINATION":87.905,"RA_OF_ASC_NODE":341.2901,"ARG_OF_PERICENTER":80.21,"MEAN_ANOMALY":279.9219,"EPHEMERIS_TYPE":0,"CLASSIFICATION_TYPE":"U","NORAD_CAT_ID":48063,"ELEMENT_SET_NO":999,"REV_AT_EPOCH":23967,"BSTAR":0.00055668767,"MEAN_MOTION_DOT":2.16e-6,"MEAN_MOTION_DDOT":0}]
