ONEWEB-0107             
1 48048U 21025G   26062.29393545  .00000317  00000+0  83321-3 0  9990
2 48048  87.9049 341.2638 0002036  77.7732 282.3625 13.13468976239622
ONEWEB-0101             
1 48049U 21025H   26062.25669359 -.00000276  00000+0 -79185-3 0  9995
2 48049  87.9042 341.2976 0001867  81.8617 278.2724 13.13469131239594
ONEWEB-0113             
1 48050U 21025J   26062.24172718  .00000044  00000+0  84381-4 0  9990
2 48050  87.9051 341.2207 0001494  81.6133 278.5166 13.13973733239692
ONEWEB-0112             
1 48051U 21025K   26062.29901887  .00000382  00000+0  10115-2 0  9990
2 48051  87.9051 341.2601 0001944  85.0451 275.0900 13.13469916239693
ONEWEB-0156             
1 48052U 21025L   26062.30747971  .00000266  00000+0  69271-3 0  9994
2 48052  87.9050 341.2697 0001866  74.9798 285.1537 13.13468579239672
ONEWEB-0161             
1 48053U 21025M   26062.28208901  .00000144  00000+0  36016-3 0  9993
2 48053  87.9038 341.2844 0001935  76.3785 283.7559 13.13469857239603
ONEWEB-0158             
1 48054U 21025N   26062.31763838 -.00000017  00000+0 -82429-4 0  9994
2 48054  87.9051 341.2676 0001518  86.8311 273.2991 13.13468752239731
ONEWEB-0157             
1 48055U 21025P   26062.26684834 -.00000176  00000+0 -51654-3 0  9998
2 48055  87.9046 341.2822 0002186  78.4549 281.6825 13.13469625239662
ONEWEB-0162             
1 48056U 21025Q   26062.24301240 -.00000002  00000+0 -40885-4 0  9997
2 48056  87.9050 341.2914 0001777  73.3368 286.7956 13.13470754239631
ONEWEB-0155             
1 48057U 21025R   26062.32609805 -.00000174  00000+0 -51230-3 0  9990
2 48057  87.9041 341.2744 0001898  81.7938 278.3406 13.13468395239784
ONEWEB-0149             
1 48058U 21025S   26062.27192634 -.00000127  00000+0 -38183-3 0  9992
2 48058  87.9049 341.2816 0001788  71.4944 288.6379 13.13469673239585
ONEWEB-0148             
1 48059U 21025T   26062.31086874  .00000184  00000+0  46993-3 0  9995
2 48059  87.9044 341.2886 0001983  62.8163 297.3168 13.13470007239713
ONEWEB-0160             
1 48060U 21025U   26062.32778748 -.00000195  00000+0 -56768-3 0  9991
2 48060  87.9040 341.2821 0001030  88.3602 271.7645 13.13469008239663
ONEWEB-0163             
1 48061U 21025V   26062.31256157  .00000113  00000+0  27548-3 0  9998
2 48061  87.9045 341.2770 0002062  79.0666 281.0696 13.13468521239787
ONEWEB-0159             
1 48062U 21025W   26062.30409036  .00000336  00000+0  88550-3 0  9991
2 48062  87.9050 341.2650 0001983  75.3860 284.7489 13.13468197239708
ONEWEB-0164             
1 48063U 21025X   26062.20929333  .00000216  00000+0  55669-3 0  9990
2 48063  87.9050 341.2901 0001680  80.2100 279.9219 13.13469618239676
